start=new Date('2021-12-10T00:00:00.000Z').valueOf();
sats=[{"SEMIMAJOR_AXIS":"6925.358","MEAN_ELEMENT_THEORY":"SGP4","REF_FRAME":"TEME","INCLINATION":"53.0553","OBJECT_NAME":"STARLINK-1601","APOAPSIS":"548.083","PERIAPSIS":"546.363","MEAN_ANOMALY":"280.0987","OBJECT_TYPE":"PAYLOAD","MEAN_MOTION":"15.06396869","RCS_SIZE":"LARGE","COUNTRY_CODE":"US","RA_OF_ASC_NODE":"79.6917","MEAN_MOTION_DDOT":"0.0000000000000","FILE":"3236488","NORAD_CAT_ID":"46120","EPHEMERIS_TYPE":"0","EPOCH":"2021-12-09T14:37:11.843904","PERIOD":"95.592","CENTER_NAME":"EARTH","TLE_LINE2":"2 46120  53.0553  79.6917 0001242  80.0143 280.0987 15.06396869 73568","REV_AT_EPOCH":"7356","SITE":"AFETR","TLE_LINE1":"1 46120U 20057D   21343.60916486  .00001061  00000-0  90123-4 0  9997","DECAY_DATE":null,"ARG_OF_PERICENTER":"80.0143","ECCENTRICITY":"0.00012420","MEAN_MOTION_DOT":"0.00001061","TIME_SYSTEM":"UTC","OBJECT_ID":"2020-057D","LAUNCH_DATE":"2020-08-18","CLASSIFICATION_TYPE":"U","BSTAR":"0.00009012300000","ELEMENT_SET_NO":"999","GP_ID":"191396579"},{"CLASSIFICATION_TYPE":"U","BSTAR":"-0.00000827980000","ELEMENT_SET_NO":"999","GP_ID":"191396330","TIME_SYSTEM":"UTC","OBJECT_ID":"2020-057E","LAUNCH_DATE":"2020-08-18","MEAN_MOTION_DOT":"-0.00000405","ARG_OF_PERICENTER":"61.0969","ECCENTRICITY":"0.00014590","CENTER_NAME":"EARTH","TLE_LINE2":"2 46121  53.0559  59.5372 0001459  61.0969 299.0166 15.06399655 72566","REV_AT_EPOCH":"7256","TLE_LINE1":"1 46121U 20057E   21343.64418495 -.00000405  00000-0 -82798-5 0  9992","SITE":"AFETR","DECAY_DATE":null,"PERIOD":"95.592","EPOCH":"2021-12-09T15:27:37.579680","EPHEMERIS_TYPE":"0","FILE":"3236488","NORAD_CAT_ID":"46121","RA_OF_ASC_NODE":"59.5372","MEAN_MOTION_DDOT":"0.0000000000000","COUNTRY_CODE":"US","RCS_SIZE":"LARGE","MEAN_MOTION":"15.06399655","OBJECT_TYPE":"PAYLOAD","MEAN_ANOMALY":"299.0166","OBJECT_NAME":"STARLINK-1602","INCLINATION":"53.0559","PERIAPSIS":"546.204","APOAPSIS":"548.225","REF_FRAME":"TEME","SEMIMAJOR_AXIS":"6925.350","MEAN_ELEMENT_THEORY":"SGP4"},{"ARG_OF_PERICENTER":"60.9769","ECCENTRICITY":"0.00016240","TLE_LINE1":"1 46122U 20057F   21343.52069958 -.00002271  00000-0 -13357-3 0  9992","SITE":"AFETR","TLE_LINE2":"2 46122  53.0553  40.0826 0001624  60.9769 299.1383 15.06412792 74089","REV_AT_EPOCH":"7408","CENTER_NAME":"EARTH","DECAY_DATE":null,"EPOCH":"2021-12-09T12:29:48.443712","PERIOD":"95.591","EPHEMERIS_TYPE":"0","BSTAR":"-0.00013357000000","CLASSIFICATION_TYPE":"U","GP_ID":"191397581","ELEMENT_SET_NO":"999","TIME_SYSTEM":"UTC","OBJECT_ID":"2020-057F","LAUNCH_DATE":"2020-08-18","MEAN_MOTION_DOT":"-0.00002271","MEAN_ANOMALY":"299.1383","OBJECT_TYPE":"PAYLOAD","INCLINATION":"53.0553","OBJECT_NAME":"STARLINK-1604","PERIAPSIS":"546.050","APOAPSIS":"548.299","REF_FRAME":"TEME","SEMIMAJOR_AXIS":"6925.309","MEAN_ELEMENT_THEORY":"SGP4","NORAD_CAT_ID":"46122","FILE":"3236488","MEAN_MOTION_DDOT":"0.0000000000000","RA_OF_ASC_NODE":"40.0826","COUNTRY_CODE":"US","RCS_SIZE":"LARGE","MEAN_MOTION":"15.06412792"},{"REF_FRAME":"TEME","MEAN_ELEMENT_THEORY":"SGP4","SEMIMAJOR_AXIS":"6925.313","MEAN_ANOMALY":"292.9615","OBJECT_TYPE":"PAYLOAD","PERIAPSIS":"546.144","APOAPSIS":"548.212","INCLINATION":"53.0548","OBJECT_NAME":"STARLINK-1605","COUNTRY_CODE":"US","RCS_SIZE":"LARGE","MEAN_MOTION":"15.06411512","NORAD_CAT_ID":"46123","FILE":"3236488","MEAN_MOTION_DDOT":"0.0000000000000","RA_OF_ASC_NODE":"39.8563","EPOCH":"2021-12-09T13:44:07.260000","PERIOD":"95.591","EPHEMERIS_TYPE":"0","ECCENTRICITY":"0.00014930","ARG_OF_PERICENTER":"67.1531","DECAY_DATE":null,"TLE_LINE1":"1 46123U 20057G   21343.57230625  .00003800  00000-0  27377-3 0  9993","SITE":"AFETR","CENTER_NAME":"EARTH","TLE_LINE2":"2 46123  53.0548  39.8563 0001493  67.1531 292.9615 15.06411512 74110","REV_AT_EPOCH":"7411","OBJECT_ID":"2020-057G","LAUNCH_DATE":"2020-08-18","TIME_SYSTEM":"UTC","MEAN_MOTION_DOT":"0.00003800","GP_ID":"191397332","ELEMENT_SET_NO":"999","BSTAR":"0.00027377000000","CLASSIFICATION_TYPE":"U"},{"COUNTRY_CODE":"US","RCS_SIZE":"LARGE","MEAN_MOTION":"15.06402614","NORAD_CAT_ID":"46124","FILE":"3236488","RA_OF_ASC_NODE":"40.4261","MEAN_MOTION_DDOT":"0.0000000000000","REF_FRAME":"TEME","SEMIMAJOR_AXIS":"6925.341","MEAN_ELEMENT_THEORY":"SGP4","MEAN_ANOMALY":"305.1105","OBJECT_TYPE":"PAYLOAD","OBJECT_NAME":"STARLINK-1614","INCLINATION":"53.0565","APOAPSIS":"548.120","PERIAPSIS":"546.291","TIME_SYSTEM":"UTC","LAUNCH_DATE":"2020-08-18","OBJECT_ID":"2020-057H","MEAN_MOTION_DOT":"-0.00000015","CLASSIFICATION_TYPE":"U","BSTAR":"0.00001789100000","ELEMENT_SET_NO":"999","GP_ID":"191396080","EPOCH":"2021-12-09T10:43:39.757152","PERIOD":"95.592","EPHEMERIS_TYPE":"0","ARG_OF_PERICENTER":"55.0008","ECCENTRICITY":"0.00013210","CENTER_NAME":"EARTH","TLE_LINE2":"2 46124  53.0565  40.4261 0001321  55.0008 305.1105 15.06402614 72828","REV_AT_EPOCH":"7282","TLE_LINE1":"1 46124U 20057H   21343.44698793 -.00000015  00000-0  17891-4 0  9991","SITE":"AFETR","DECAY_DATE":null},{"OBJECT_ID":"2020-057J","LAUNCH_DATE":"2020-08-18","TIME_SYSTEM":"UTC","MEAN_MOTION_DOT":"-0.00000760","ELEMENT_SET_NO":"999","GP_ID":"191396830","CLASSIFICATION_TYPE":"U","BSTAR":"-0.00003217200000","PERIOD":"95.593","EPOCH":"2021-12-09T16:39:17.030304","EPHEMERIS_TYPE":"0","ECCENTRICITY":"0.00012980","ARG_OF_PERICENTER":"79.9040","DECAY_DATE":null,"TLE_LINE2":"2 46125  53.0542  79.3000 0001298  79.9040 280.2095 15.06390971 73554","CENTER_NAME":"EARTH","REV_AT_EPOCH":"7355","TLE_LINE1":"1 46125U 20057J   21343.69394711 -.00000760  00000-0 -32172-4 0  9999","SITE":"AFETR","COUNTRY_CODE":"US","MEAN_MOTION":"15.06390971","RCS_SIZE":"LARGE","FILE":"3236488","NORAD_CAT_ID":"46125","RA_OF_ASC_NODE":"79.3000","MEAN_MOTION_DDOT":"0.0000000000000","REF_FRAME":"TEME","MEAN_ELEMENT_THEORY":"SGP4","SEMIMAJOR_AXIS":"6925.376","MEAN_ANOMALY":"280.2095","OBJECT_TYPE":"PAYLOAD","PERIAPSIS":"546.342","APOAPSIS":"548.140","INCLINATION":"53.0542","OBJECT_NAME":"STARLINK-1618"},{"MEAN_MOTION_DOT":"0.00002181","TIME_SYSTEM":"UTC","LAUNCH_DATE":"2020-08-18","OBJECT_ID":"2020-057K","CLASSIFICATION_TYPE":"U","BSTAR":"0.00016525000000","ELEMENT_SET_NO":"999","GP_ID":"191397082","EPHEMERIS_TYPE":"0","EPOCH":"2021-12-09T14:26:35.084544","PERIOD":"95.592","TLE_LINE2":"2 46126  53.0723  79.6496 0001572  55.0072 305.1064 15.06403849 72284","REV_AT_EPOCH":"7228","CENTER_NAME":"EARTH","SITE":"AFETR","TLE_LINE1":"1 46126U 20057K   21343.60179496  .00002181  00000-0  16525-3 0  9992","DECAY_DATE":null,"ARG_OF_PERICENTER":"55.0072","ECCENTRICITY":"0.00015720","MEAN_MOTION":"15.06403849","RCS_SIZE":"LARGE","COUNTRY_CODE":"US","RA_OF_ASC_NODE":"79.6496","MEAN_MOTION_DDOT":"0.0000000000000","FILE":"3236488","NORAD_CAT_ID":"46126","SEMIMAJOR_AXIS":"6925.337","MEAN_ELEMENT_THEORY":"SGP4","REF_FRAME":"TEME","INCLINATION":"53.0723","OBJECT_NAME":"STARLINK-1619","PERIAPSIS":"546.113","APOAPSIS":"548.290","MEAN_ANOMALY":"305.1064","OBJECT_TYPE":"PAYLOAD"},{"FILE":"3236488","NORAD_CAT_ID":"46127","RA_OF_ASC_NODE":"59.4695","MEAN_MOTION_DDOT":"0.0000000000000","COUNTRY_CODE":"US","MEAN_MOTION":"15.06400338","RCS_SIZE":"LARGE","OBJECT_TYPE":"PAYLOAD","MEAN_ANOMALY":"279.8476","OBJECT_NAME":"STARLINK-1621","INCLINATION":"53.0554","PERIAPSIS":"546.231","APOAPSIS":"548.195","REF_FRAME":"TEME","SEMIMAJOR_AXIS":"6925.348","MEAN_ELEMENT_THEORY":"SGP4","CLASSIFICATION_TYPE":"U","BSTAR":"-0.00003723600000","ELEMENT_SET_NO":"999","GP_ID":"191397832","TIME_SYSTEM":"UTC","OBJECT_ID":"2020-057L","LAUNCH_DATE":"2020-08-18","MEAN_MOTION_DOT":"-0.00000836","ARG_OF_PERICENTER":"80.2673","ECCENTRICITY":"0.00014180","REV_AT_EPOCH":"7256","TLE_LINE2":"2 46127  53.0554  59.4695 0001418  80.2673 279.8476 15.06400338 72565","CENTER_NAME":"EARTH","SITE":"AFETR","TLE_LINE1":"1 46127U 20057L   21343.65893237 -.00000836  00000-0 -37236-4 0  9994","DECAY_DATE":null,"PERIOD":"95.592","EPOCH":"2021-12-09T15:48:51.756768","EPHEMERIS_TYPE":"0"},{"CENTER_NAME":"EARTH","TLE_LINE2":"2 46128  53.0563  39.6482 0001627  62.1700 297.9454 15.06399175 72846","REV_AT_EPOCH":"7284","TLE_LINE1":"1 46128U 20057M   21343.62022925  .00000808  00000-0  73166-4 0  9999","SITE":"AFETR","DECAY_DATE":null,"ARG_OF_PERICENTER":"62.1700","ECCENTRICITY":"0.00016270","EPHEMERIS_TYPE":"0","EPOCH":"2021-12-09T14:53:07.807200","PERIOD":"95.592","CLASSIFICATION_TYPE":"U","BSTAR":"0.00007316600000","ELEMENT_SET_NO":"999","GP_ID":"191396580","MEAN_MOTION_DOT":"0.00000808","TIME_SYSTEM":"UTC","OBJECT_ID":"2020-057M","LAUNCH_DATE":"2020-08-18","OBJECT_NAME":"STARLINK-1622","INCLINATION":"53.0563","PERIAPSIS":"546.089","APOAPSIS":"548.343","MEAN_ANOMALY":"297.9454","OBJECT_TYPE":"PAYLOAD","SEMIMAJOR_AXIS":"6925.351","MEAN_ELEMENT_THEORY":"SGP4","REF_FRAME":"TEME","RA_OF_ASC_NODE":"39.6482","MEAN_MOTION_DDOT":"0.0000000000000","NORAD_CAT_ID":"46128","FILE":"3236488","RCS_SIZE":"LARGE","MEAN_MOTION":"15.06399175","COUNTRY_CODE":"US"},{"GP_ID":"191396331","ELEMENT_SET_NO":"999","BSTAR":"-0.00000628040000","CLASSIFICATION_TYPE":"U","MEAN_MOTION_DOT":"-0.00000375","OBJECT_ID":"2020-057N","LAUNCH_DATE":"2020-08-18","TIME_SYSTEM":"UTC","DECAY_DATE":null,"TLE_LINE1":"1 46129U 20057N   21343.66077211 -.00000375  00000-0 -62804-5 0  9991","SITE":"AFETR","REV_AT_EPOCH":"7285","TLE_LINE2":"2 46129  53.0564  39.4652 0001345  71.9216 288.1920 15.06395483 72851","CENTER_NAME":"EARTH","ECCENTRICITY":"0.00013450","ARG_OF_PERICENTER":"71.9216","EPHEMERIS_TYPE":"0","PERIOD":"95.592","EPOCH":"2021-12-09T15:51:30.710304","MEAN_MOTION_DDOT":"0.0000000000000","RA_OF_ASC_NODE":"39.4652","FILE":"3236488","NORAD_CAT_ID":"46129","MEAN_MOTION":"15.06395483","RCS_SIZE":"LARGE","COUNTRY_CODE":"US","PERIAPSIS":"546.296","APOAPSIS":"548.159","INCLINATION":"53.0564","OBJECT_NAME":"STARLINK-1623","MEAN_ANOMALY":"288.1920","OBJECT_TYPE":"PAYLOAD","MEAN_ELEMENT_THEORY":"SGP4","SEMIMAJOR_AXIS":"6925.362","REF_FRAME":"TEME"}];
